OBJECT_NAME,OBJECT_ID,EPOCH,MEAN_MOTION,ECCENTRICITY,INCLINATION,RA_OF_ASC_NODE,ARG_OF_PERICENTER,MEAN_ANOMALY,EPHEMERIS_TYPE,CLASSIFICATION_TYPE,NORAD_CAT_ID,ELEMENT_SET_NO,REV_AT_EPOCH,BSTAR,MEAN_MOTION_DOT,MEAN_MOTION_DDOT
STARLINK-31413,2024-060F,2026-02-27T03:35:56.868000,15.27580056,.00012009,43.0019,319.1475,263.1623,96.9092,0,U,59353,999,10845,-.4059493E-4,-.1379E-4,0
STARLINK-31422,2024-060G,2026-02-27T01:36:05.688864,15.27579807,.00012394,43.0025,320.2451,264.9340,95.1370,0,U,59354,999,10843,-.20716566E-4,-.832E-5,0
STARLINK-31416,2024-060H,2026-02-27T02:33:13.819680,15.27594755,.00023436,43.0089,319.6738,251.7430,108.3167,0,U,59355,999,10844,-.45679905E-4,-.152E-4,0
STARLINK-31552,2024-060J,2026-02-27T03:04:42.093408,15.27583028,.00018929,43.0039,319.8571,248.0879,111.9772,0,U,59356,999,10844,.22584248E-4,.359E-5,0
STARLINK-31557,2024-060K,2026-02-27T01:21:46.017504,15.27581590,.00016502,43.0023,315.8137,273.3560,86.7103,0,U,59357,999,10848,.48952035E-4,.1085E-4,0
STARLINK-31559,2024-060L,2026-02-27T02:12:53.776512,15.27556670,.00003975,42.9973,319.5718,236.0712,124.0102,0,U,59358,999,10844,.19386956E-3,.5073E-4,0
STARLINK-31501,2024-060M,2026-02-27T01:19:26.065056,15.27595491,.00014783,43.0026,320.1568,270.9801,89.0881,0,U,59359,999,10843,-.2718975E-4,-.1011E-4,0
STARLINK-31549,2024-060N,2026-02-27T03:30:24.885504,15.27541828,.00012021,43.0032,319.1165,269.9479,90.1235,0,U,59360,999,10845,-.11682461E-4,-.583E-5,0
STARLINK-31560,2024-060P,2026-02-27T01:10:11.650944,15.27580299,.00013173,43.0044,320.1060,263.7608,96.3094,0,U,59361,999,10843,.12547652E-4,.83E-6,0
STARLINK-31571,2024-060Q,2026-02-27T02:48:03.079584,15.27579009,.00011812,43.0058,319.7517,266.7866,93.2850,0,U,59362,999,10844,-.22088439E-4,-.87E-5,0
STARLINK-31553,2024-060R,2026-02-27T02:32:47.012352,15.27576792,.00011613,43.0036,312.7396,278.5774,81.4946,0,U,59363,999,10852,.2890771E-4,.533E-5,0
STARLINK-31547,2024-060S,2026-02-27T02:14:45.656736,15.27567056,.0001322,43.0017,308.3389,271.1783,88.8918,0,U,59364,999,10857,.17981231E-3,.4687E-4,0
STARLINK-31537,2024-060T,2026-02-27T01:24:58.663584,15.27598915,.00014828,43.0034,320.1800,260.4688,99.5996,0,U,59365,999,10843,.80844791E-4,.1964E-4,0
STARLINK-31451,2024-060U,2026-02-27T01:50:40.221888,15.27605912,.00015016,43.0033,319.4537,251.1545,108.9144,0,U,59366,999,10844,-.1498925E-3,-.4388E-4,0
STARLINK-31428,2024-060V,2026-02-27T02:07:20.193888,15.27581432,.00009664,42.9996,319.5434,275.4961,84.5780,0,U,59367,999,10844,.20636411E-4,.306E-5,0
STARLINK-31419,2024-060W,2026-02-26T23:08:18.386016,15.27551338,.00015623,43.0023,320.3303,267.2006,92.8666,0,U,59368,999,10842,-.1257614E-3,-.3718E-4,0
STARLINK-31583,2024-060X,2026-02-25T02:16:35.990400,15.27600801,.00009221,43.0040,319.9934,258.7379,101.3369,0,U,59369,999,10826,.13682769E-3,.3507E-4,0
STARLINK-31461,2024-060Y,2026-02-27T01:37:58.901376,15.27573089,.00011613,43.0027,309.0011,244.4057,115.6675,0,U,59370,999,10850,-.41920051E-4,-.1415E-4,0
RESURS-P 4,2024-061A,2026-02-27T07:13:29.548416,15.32818366,.00029201,97.2633,8.1459,71.1580,288.9979,0,U,59371,999,10693,.14212658E-3,.4428E-4,0
STARLINK-31641,2024-062A,2026-02-26T17:33:33.978528,15.30200296,.00011111,53.1611,309.4126,105.8448,254.2676,0,U,59374,999,10794,.39064844E-4,.798E-5,0
STARLINK-31430,2024-062B,2026-02-27T02:47:15.201888,15.30201812,.00006,53.1594,307.5411,60.3722,299.7338,0,U,59375,999,10801,-.1513665E-5,-.404E-5,0
STARLINK-31695,2024-062C,2026-02-26T23:50:23.049312,15.30191409,.00012309,53.1606,305.3569,87.7842,272.3300,0,U,59376,999,10799,.918219E-6,-.332E-5,0
STARLINK-31716,2024-062D,2026-02-26T23:02:31.553952,15.30195306,.0001314,53.1590,256.8543,80.4123,279.7026,0,U,59377,999,10866,.20421E-4,.246E-5,0
STARLINK-31710,2024-062E,2026-02-27T00:05:34.636704,15.30188388,.000182,53.1625,305.4222,80.9049,279.2158,0,U,59378,999,10799,-.45509913E-4,-.1707E-4,0
STARLINK-31698,2024-062F,2026-02-27T02:53:56.452992,15.30188566,.00009358,53.1609,304.7458,67.5122,292.5978,0,U,59379,999,10801,-.11967817E-4,-.713E-5,0
STARLINK-31680,2024-062G,2026-02-26T17:32:03.247296,15.30205871,.0000683,53.1596,309.3985,86.1947,273.9132,0,U,59380,999,10791,-.35913404E-4,-.1422E-4,0
STARLINK-31713,2024-062H,2026-02-26T17:13:48.988704,15.30196363,.00009061,53.1598,309.3255,87.3868,272.7236,0,U,59381,999,10791,.20980033E-4,.262E-5,0
STARLINK-31705,2024-062J,2026-02-26T16:10:45.020352,15.30192692,.00011326,53.1607,306.9165,87.3605,272.7525,0,U,59382,999,10794,.946192E-6,-.331E-5,0
STARLINK-31715,2024-062L,2026-02-27T02:44:48.562944,15.30196736,.00008359,53.1587,304.6889,106.8210,253.2882,0,U,59384,999,10805,.8478266E-5,-.108E-5,0
STARLINK-31717,2024-062M,2026-02-26T16:24:25.543872,15.30203106,.00014489,53.1655,306.9773,96.7445,263.3721,0,U,59385,999,10797,-.5431361E-4,-.1968E-4,0
STARLINK-31688,2024-062N,2026-02-26T17:09:14.782752,15.30206621,.00007758,53.1595,309.3058,357.1386,2.9610,0,U,59386,999,10791,.76862286E-4,.1919E-4,0
STARLINK-31714,2024-062P,2026-02-26T02:22:30.866304,15.30185220,.00007437,53.1584,309.7267,66.3340,293.7739,0,U,59387,999,10784,-.20735715E-4,-.973E-5,0
STARLINK-31643,2024-062Q,2026-02-27T00:10:09.904512,15.30175216,.00003826,53.1584,305.4370,107.2386,252.8657,0,U,59388,999,10803,-.67616368E-4,-.2359E-4,0
STARLINK-31647,2024-062R,2026-02-26T22:52:48.416160,15.30195651,.00010013,53.1590,305.8476,95.5606,264.5509,0,U,59389,999,10802,.2898399E-5,-.273E-5,0
STARLINK-31649,2024-062S,2026-02-26T16:04:38.596224,15.30147638,.00009897,53.1646,306.8885,98.6907,261.4206,0,U,59390,999,10798,.39476949E-3,.11332E-3,0
STARLINK-31644,2024-062T,2026-02-26T17:04:41.846016,15.30197922,.00013242,53.1597,309.2825,79.2984,280.8166,0,U,59391,999,10795,.30902364E-4,.556E-5,0
STARLINK-31626,2024-062U,2026-02-26T15:41:52.819584,15.30198760,.0001023,53.1596,306.7916,115.3880,244.7227,0,U,59392,999,10798,-.51484E-5,-.511E-5,0
STARLINK-31443,2024-062V,2026-02-27T05:20:03.171552,15.29824869,.00013797,53.1595,291.6858,106.4567,253.6586,0,U,59393,999,10824,.19943724E-2,.5849E-3,0
STARLINK-31607,2024-062W,2026-02-26T15:51:00.681120,15.30186545,.0001186,53.1616,306.8323,84.4250,275.6886,0,U,59394,999,10797,-.21926E-4,-.1008E-4,0
YAOGAN-42 01,2024-063A,2026-02-26T13:49:04.995264,15.22963616,.0002282,34.9984,101.4799,20.4481,339.6324,0,U,59395,999,10597,.52938583E-3,.12724E-3,0
STARLINK-31608,2024-062X,2026-02-26T16:33:32.639040,15.30197262,.00011525,53.1592,307.0145,75.7023,284.4106,0,U,59397,999,10793,.22200642E-4,.298E-5,0
STARLINK-31534,2024-064A,2026-02-27T04:27:13.149504,15.27627154,.00011898,43.0019,115.1240,261.4852,98.5865,0,U,59398,999,10756,-.38468337E-3,-.10848E-3,0
STARLINK-31544,2024-064B,2026-02-27T04:07:04.795392,15.27535803,.0000598,42.9996,115.8773,255.2004,104.8781,0,U,59399,999,10761,.35678834E-3,.9556E-4,0
STARLINK-31545,2024-064C,2026-02-27T04:43:52.273056,15.27574395,.0001096,42.9999,115.2100,263.6138,96.4589,0,U,59400,999,10762,.60356263E-4,.1399E-4,0
STARLINK-31507,2024-064D,2026-02-27T04:53:07.310976,15.27580314,.00004962,42.9999,115.2535,250.6630,109.4168,0,U,59401,999,10756,.26267712E-4,.461E-5,0
STARLINK-31543,2024-064E,2026-02-27T05:30:07.848000,15.27580774,.00012321,42.9993,115.4455,200.4200,159.6603,0,U,59402,999,10762,.25467129E-4,.439E-5,0
STARLINK-31366,2024-064F,2026-02-27T05:09:46.766304,15.27560605,.00009208,43.0015,115.3403,230.5995,129.4775,0,U,59403,999,10762,.17821349E-3,.4642E-4,0
STARLINK-31374,2024-064G,2026-02-27T01:31:47.283744,15.27579021,.00010622,43.0043,65.1192,274.3128,85.7603,0,U,59404,999,10793,.36537468E-4,.743E-5,0
STARLINK-31400,2024-064H,2026-02-27T04:32:45.716928,15.27587286,.00010676,43.0004,115.1555,277.3212,82.7518,0,U,59405,999,10762,-.469447E-6,-.275E-5,0
STARLINK-31391,2024-064J,2026-02-27T04:38:18.842496,15.27587403,.00009837,42.9974,115.1761,191.5127,168.5702,0,U,59406,999,10762,.80307458E-4,.1949E-4,0
STARLINK-31387,2024-064K,2026-02-27T04:01:31.637856,15.27575527,.00015814,43.0012,115.8462,263.5303,96.5368,0,U,59407,999,10761,.8997035E-5,-.15E-6,0
STARLINK-31396,2024-064M,2026-02-26T11:39:29.549088,15.27581937,.0001503,43.0004,108.9325,254.2857,105.7829,0,U,59409,999,10757,.34332E-4,.683E-5,0
STARLINK-31412,2024-064N,2026-02-27T05:04:13.706400,15.27589640,.00009686,43.0029,115.3098,243.0327,117.0426,0,U,59410,999,10762,-.10288748E-3,-.3093E-4,0
STARLINK-31483,2024-064P,2026-02-27T05:20:51.945216,15.27594306,.00020551,43.0059,115.3994,283.8672,76.1951,0,U,59411,999,10762,-.29460977E-4,-.1074E-4,0
STARLINK-31568,2024-064Q,2026-02-27T05:24:34.651584,15.27586411,.00020769,43.0041,115.4180,272.4268,87.6346,0,U,59412,999,10762,-.42388208E-4,-.1429E-4,0
STARLINK-31615,2024-064R,2026-02-27T05:14:52.053792,15.27576980,.00012478,43.0011,108.4273,276.2734,83.7976,0,U,59413,999,10770,.7285433E-5,-.62E-6,0
STARLINK-31457,2024-064S,2026-02-26T13:37:00.024096,15.27576570,.0001708,43.0021,112.1290,259.2803,100.7856,0,U,59414,999,10760,.42316E-4,.902E-5,0
STARLINK-31398,2024-064T,2026-02-27T04:58:39.978624,15.27586122,.0001085,43.0021,115.2771,239.1007,120.9738,0,U,59415,999,10762,.24464217E-4,.411E-5,0
STARLINK-31399,2024-064U,2026-02-27T04:49:25.308768,15.27581484,.00016577,43.0051,115.2287,269.2560,90.8101,0,U,59416,999,10762,-.36009161E-4,-.1253E-4,0
STARLINK-31401,2024-064V,2026-02-27T03:35:09.468960,15.27583621,.00014038,43.0009,108.7800,269.7773,90.2918,0,U,59417,999,10744,.52682755E-4,.1188E-4,0
STARLINK-31414,2024-064W,2026-02-27T05:15:19.622304,15.27610297,.00012149,43.0024,115.3705,265.9191,94.1522,0,U,59418,999,10762,-.23614018E-3,-.676E-4,0
STARLINK-31415,2024-064X,2026-02-27T04:18:11.005056,15.27576980,.00012892,43.0002,115.9331,255.3503,104.7206,0,U,59419,999,10761,-.15504254E-4,-.689E-5,0
STARLINK-31466,2024-064Y,2026-02-27T05:46:46.821216,15.27599013,.00015224,43.0025,115.5359,287.2098,72.8587,0,U,59420,999,10762,-.11231259E-3,-.3353E-4,0
